LEGION 1                
1 59625U 24081A   26191.71321566  .00002209  00000+0  11574-3 0  9995
2 59625  97.5013 269.3204 0007701 288.5225  71.5171 15.16825615121104
LEGION 2                
1 59626U 24081B   26191.74353619  .00002206  00000+0  11559-3 0  9993
2 59626  97.5012 269.4473 0009994 250.9573 109.0578 15.16804692121119
LEGION 3                
1 60452U 24146A   26191.59103442  .00002054  00000+0  11981-3 0  9994
2 60452  45.0014 265.0672 0008631 309.9057  50.1062 15.15637578105572
LEGION 4                
1 60453U 24146B   26191.78858791  .00002225  00000+0  12858-3 0  9994
2 60453  45.0026 355.8751 0008987  85.6099 274.5806 15.15657914104450
LEGION 5                
1 62900U 25025A   26191.39430771  .00001714  00000+0  10112-3 0  9994
2 62900  44.9999 176.9628 0008548 278.4913  81.4996 15.16054568 78015
LEGION 6                
1 62901U 25025B   26191.12870336  .00002350  00000+0  13493-3 0  9993
2 62901  45.0014  87.5194 0010735 250.8009 109.1708 15.15668770 79118
